{
  "type": "FeatureCollection",
  "features": [
    {
      "type": "Feature",
      "properties": {
        "norad_id": 43783,
        "name": "KAZSTSAT",
        "group": "resource",
        "lat": 58.28437871403456,
        "lon": -137.2718785776326,
        "alt_km": 567.3810131178143,
        "timestamp": "2025-12-21T16:47:54.386596+00:00",
        "meta_object_name": "KAZSTSAT",
        "meta_object_id": "2018-099AB",
        "meta_epoch": "2025-12-21T01:50:44.888352",
        "meta_mean_motion": 14.99364891,
        "meta_eccentricity": 0.00060238,
        "meta_inclination": 97.4527,
        "meta_ra_of_asc_node": 29.903,
        "meta_arg_of_pericenter": 292.687,
        "meta_mean_anomaly": 67.3717,
        "meta_ephemeris_type": 0,
        "meta_classification_type": "U",
        "meta_norad_cat_id": 43783,
        "meta_element_set_no": 999,
        "meta_rev_at_epoch": 38461,
        "meta_bstar": 1.8043656e-05,
        "meta_mean_motion_dot": 1.65e-06,
        "meta_mean_motion_ddot": 0,
        "tle_line1": "1 43783U 18099AB  25355.07690843  .00000165  00000+0  18044-4 0  9991",
        "tle_line2": "2 43783  97.4527  29.9030 0006023 292.6870  67.3717 14.99364891384616"
      },
      "geometry": {
        "type": "Point",
        "coordinates": [
          -137.2718785776326,
          58.28437871403456
        ]
      }
    },
    {
      "type": "Feature",
      "properties": {
        "norad_id": 43831,
        "name": "SAUDISAT 5A",
        "group": "resource",
        "lat": -57.24902881004986,
        "lon": 67.26863957716272,
        "alt_km": 497.8358365108261,
        "timestamp": "2025-12-21T16:47:54.386606+00:00",
        "meta_object_name": "SAUDISAT 5A",
        "meta_object_id": "2018-102A",
        "meta_epoch": "2025-12-21T12:19:48.362016",
        "meta_mean_motion": 15.25755517,
        "meta_eccentricity": 0.0011333,
        "meta_inclination": 97.334,
        "meta_ra_of_asc_node": 55.5357,
        "meta_arg_of_pericenter": 49.1682,
        "meta_mean_anomaly": 311.0537,
        "meta_ephemeris_type": 0,
        "meta_classification_type": "U",
        "meta_norad_cat_id": 43831,
        "meta_element_set_no": 999,
        "meta_rev_at_epoch": 38856,
        "meta_bstar": 0.00019537,
        "meta_mean_motion_dot": 4.923e-05,
        "meta_mean_motion_ddot": 0,
        "tle_line1": "1 43831U 18102A   25355.51375419  .00004923  00000+0  19537-3 0  9991",
        "tle_line2": "2 43831  97.3340  55.5357 0011333  49.1682 311.0537 15.25755517388561"
      },
      "geometry": {
        "type": "Point",
        "coordinates": [
          67.26863957716272,
          -57.24902881004986
        ]
      }
    },
    {
      "type": "Feature",
      "properties": {
        "norad_id": 43833,
        "name": "SAUDISAT 5B",
        "group": "resource",
        "lat": 5.467769885028714,
        "lon": 57.765624854486326,
        "alt_km": 483.96070465568755,
        "timestamp": "2025-12-21T16:47:54.386620+00:00",
        "meta_object_name": "SAUDISAT 5B",
        "meta_object_id": "2018-102C",
        "meta_epoch": "2025-12-21T12:03:12.462912",
        "meta_mean_motion": 15.26103674,
        "meta_eccentricity": 0.0012053,
        "meta_inclination": 97.3436,
        "meta_ra_of_asc_node": 58.2787,
        "meta_arg_of_pericenter": 51.2563,
        "meta_mean_anomaly": 308.9751,
        "meta_ephemeris_type": 0,
        "meta_classification_type": "U",
        "meta_norad_cat_id": 43833,
        "meta_element_set_no": 999,
        "meta_rev_at_epoch": 38867,
        "meta_bstar": 0.0001771,
        "meta_mean_motion_dot": 4.504e-05,
        "meta_mean_motion_ddot": 0,
        "tle_line1": "1 43833U 18102C   25355.50222758  .00004504  00000+0  17710-3 0  9995",
        "tle_line2": "2 43833  97.3436  58.2787 0012053  51.2563 308.9751 15.26103674388675"
      },
      "geometry": {
        "type": "Point",
        "coordinates": [
          57.765624854486326,
          5.467769885028714
        ]
      }
    },
    {
      "type": "Feature",
      "properties": {
        "norad_id": 44622,
        "name": "GAOFEN-10R",
        "group": "resource",
        "lat": -3.818719872596752,
        "lon": -56.218543641301125,
        "alt_km": 619.1363152202166,
        "timestamp": "2025-12-21T16:47:54.386631+00:00",
        "meta_object_name": "GAOFEN-10R",
        "meta_object_id": "2019-066A",
        "meta_epoch": "2025-12-21T11:57:25.910784",
        "meta_mean_motion": 14.82819365,
        "meta_eccentricity": 0.0007283,
        "meta_inclination": 98.029,
        "meta_ra_of_asc_node": 303.0391,
        "meta_arg_of_pericenter": 16.4024,
        "meta_mean_anomaly": 343.7423,
        "meta_ephemeris_type": 0,
        "meta_classification_type": "U",
        "meta_norad_cat_id": 44622,
        "meta_element_set_no": 999,
        "meta_rev_at_epoch": 33604,
        "meta_bstar": 0.00016069,
        "meta_mean_motion_dot": 1.246e-05,
        "meta_mean_motion_ddot": 0,
        "tle_line1": "1 44622U 19066A   25355.49821656  .00001246  00000+0  16069-3 0  9998",
        "tle_line2": "2 44622  98.0290 303.0391 0007283  16.4024 343.7423 14.82819365336043"
      },
      "geometry": {
        "type": "Point",
        "coordinates": [
          -56.218543641301125,
          -3.818719872596752
        ]
      }
    },
    {
      "type": "Feature",
      "properties": {
        "norad_id": 44804,
        "name": "CARTOSAT-3",
        "group": "resource",
        "lat": -69.70871034712252,
        "lon": -145.57850279395632,
        "alt_km": 524.6377028035167,
        "timestamp": "2025-12-21T16:47:54.386641+00:00",
        "meta_object_name": "CARTOSAT-3",
        "meta_object_id": "2019-081A",
        "meta_epoch": "2025-12-21T12:32:07.985760",
        "meta_mean_motion": 15.19222409,
        "meta_eccentricity": 0.0013838,
        "meta_inclination": 97.4573,
        "meta_ra_of_asc_node": 54.9946,
        "meta_arg_of_pericenter": 55.5336,
        "meta_mean_anomaly": 304.7204,
        "meta_ephemeris_type": 0,
        "meta_classification_type": "U",
        "meta_norad_cat_id": 44804,
        "meta_element_set_no": 999,
        "meta_rev_at_epoch": 33649,
        "meta_bstar": 0.00029376,
        "meta_mean_motion_dot": 6.134e-05,
        "meta_mean_motion_ddot": 0,
        "tle_line1": "1 44804U 19081A   25355.52231465  .00006134  00000+0  29376-3 0  9990",
        "tle_line2": "2 44804  97.4573  54.9946 0013838  55.5336 304.7204 15.19222409336494"
      },
      "geometry": {
        "type": "Point",
        "coordinates": [
          -145.57850279395632,
          -69.70871034712252
        ]
      }
    },
    {
      "type": "Feature",
      "properties": {
        "norad_id": 44819,
        "name": "GAOFEN-12 01",
        "group": "resource",
        "lat": -14.04439098945503,
        "lon": 179.77757229438325,
        "alt_km": 630.5409397949552,
        "timestamp": "2025-12-21T16:47:54.386651+00:00",
        "meta_object_name": "GAOFEN-12 01",
        "meta_object_id": "2019-082A",
        "meta_epoch": "2025-12-21T12:40:51.364128",
        "meta_mean_motion": 14.80666922,
        "meta_eccentricity": 0.0001908,
        "meta_inclination": 97.8124,
        "meta_ra_of_asc_node": 1.5787,
        "meta_arg_of_pericenter": 191.0627,
        "meta_mean_anomaly": 169.0544,
        "meta_ephemeris_type": 0,
        "meta_classification_type": "U",
        "meta_norad_cat_id": 44819,
        "meta_element_set_no": 999,
        "meta_rev_at_epoch": 32780,
        "meta_bstar": 5.7353e-05,
        "meta_mean_motion_dot": 3.9e-06,
        "meta_mean_motion_ddot": 0,
        "tle_line1": "1 44819U 19082A   25355.52837227  .00000390  00000+0  57353-4 0  9990",
        "tle_line2": "2 44819  97.8124   1.5787 0001908 191.0627 169.0544 14.80666922327804"
      },
      "geometry": {
        "type": "Point",
        "coordinates": [
          179.77757229438325,
          -14.04439098945503
        ]
      }
    },
    {
      "type": "Feature",
      "properties": {
        "norad_id": 44873,
        "name": "CSG-1",
        "group": "resource",
        "lat": -7.00527953420218,
        "lon": 177.86415954432894,
        "alt_km": 626.4664037695065,
        "timestamp": "2025-12-21T16:47:54.386661+00:00",
        "meta_object_name": "CSG-1",
        "meta_object_id": "2019-092A",
        "meta_epoch": "2025-12-21T11:58:10.193376",
        "meta_mean_motion": 14.82151247,
        "meta_eccentricity": 0.000147,
        "meta_inclination": 97.8803,
        "meta_ra_of_asc_node": 176.6909,
        "meta_arg_of_pericenter": 85.6244,
        "meta_mean_anomaly": 274.5137,
        "meta_ephemeris_type": 0,
        "meta_classification_type": "U",
        "meta_norad_cat_id": 44873,
        "meta_element_set_no": 999,
        "meta_rev_at_epoch": 32515,
        "meta_bstar": 6.5105e-05,
        "meta_mean_motion_dot": 4.66e-06,
        "meta_mean_motion_ddot": 0,
        "tle_line1": "1 44873U 19092A   25355.49872909  .00000466  00000+0  65105-4 0  9991",
        "tle_line2": "2 44873  97.8803 176.6909 0001470  85.6244 274.5137 14.82151247325152"
      },
      "geometry": {
        "type": "Point",
        "coordinates": [
          177.86415954432894,
          -7.00527953420218
        ]
      }
    }
  ]
}